NORAD_CAT_ID,OBJECT_NAME,OBJECT_TYPE,EPOCH,MEAN_MOTION,ECCENTRICITY,INCLINATION,RA_OF_ASC_NODE,ARG_OF_PERICENTER,MEAN_ANOMALY,BSTAR,MEAN_MOTION_DOT,MEAN_MOTION_DDOT,TLE_LINE0,TLE_LINE1,TLE_LINE2,SEMIMAJOR_AXIS,PERIOD,APOGEE,PERIGEE,DECAYED
54065.0,STARLINK-5187,PAYLOAD,2023-05-03 20:14:37,15.08823988,0.0001468,53.2174,336.5162,76.0732,284.0423,0.00028683,4.278e-05,0.0,0 STARLINK-5187,1 54065U 22136Q   23123.84349357  .00004278  00000-0  28683-3 0  9999,2 54065  53.2174 336.5162 0001468  76.0732 284.0423 15.08823988 30192,6917.929,95.439,540.81,538.779,0.0
54065.0,STARLINK-5187,PAYLOAD,2023-05-03 21:50:00,15.08834216,0.0001392,53.217,336.2188,76.0023,284.1124,1.3786e-05,-6.9e-07,0.0,0 STARLINK-5187,1 54065U 22136Q   23123.90972841 -.00000069  00000-0  13786-4 0  9990,2 54065  53.2170 336.2188 0001392  76.0023 284.1124 15.08834216 29724,6917.898,95.438,540.726,538.8,0.0
54065.0,STARLINK-5187,PAYLOAD,2023-05-03 23:25:23,15.08836454,0.0001343,53.2165,335.9205,77.3585,282.7558,-1.1631e-05,-4.73e-06,0.0,0 STARLINK-5187,1 54065U 22136Q   23123.97596691 -.00000473  00000-0 -11631-4 0  9999,2 54065  53.2165 335.9205 0001343  77.3585 282.7558 15.08836454 30214,6917.891,95.438,540.685,538.827,0.0
54065.0,STARLINK-5187,PAYLOAD,2023-05-04 13:43:51,15.08847101,0.0001118,53.2168,333.2439,85.2067,274.9052,4.0711e-05,3.6e-06,0.0,0 STARLINK-5187,1 54065U 22136Q   23124.57212381  .00000360  00000-0  40711-4 0  9991,2 54065  53.2168 333.2439 0001118  85.2067 274.9052 15.08847101 29828,6917.859,95.437,540.497,538.95,0.0
54065.0,STARLINK-5187,PAYLOAD,2023-05-04 20:05:23,15.08848613,0.0001084,53.2155,332.0553,76.8767,283.2346,8.5516e-05,1.074e-05,0.0,0 STARLINK-5187,1 54065U 22136Q   23124.83708069  .00001074  00000-0  85516-4 0  9998,2 54065  53.2155 332.0553 0001084  76.8767 283.2346 15.08848613 29865,6917.854,95.437,540.469,538.969,0.0
54065.0,STARLINK-5187,PAYLOAD,2023-05-04 23:16:09,15.08849923,0.0001045,53.2152,331.46,82.3349,277.7761,0.00014566,2.032e-05,0.0,0 STARLINK-5187,1 54065U 22136Q   23124.96955959  .00002032  00000-0  14566-3 0  9995,2 54065  53.2152 331.4600 0001045  82.3349 277.7761 15.08849923 30364,6917.85,95.437,540.438,538.992,0.0
54065.0,STARLINK-5187,PAYLOAD,2023-05-05 13:34:38,15.08836829,0.0001124,53.2147,328.7809,89.201,270.9111,0.00018825,2.709e-05,0.0,0 STARLINK-5187,1 54065U 22136Q   23125.56572778  .00002709  00000-0  18825-3 0  9999,2 54065  53.2147 328.7809 0001124  89.2010 270.9111 15.08836829 30452,6917.89,95.438,540.533,538.978,0.0
54065.0,STARLINK-5187,PAYLOAD,2023-05-05 19:56:11,15.08839559,0.0001079,53.2155,327.5935,79.9678,280.1435,0.0001244,1.693e-05,0.0,0 STARLINK-5187,1 54065U 22136Q   23125.83068710  .00001693  00000-0  12440-3 0  9993,2 54065  53.2155 327.5935 0001079  79.9678 280.1435 15.08839559 30010,6917.882,95.438,540.493,539.0,0.0
54065.0,STARLINK-5187,PAYLOAD,2023-05-05 23:06:57,15.08841778,0.0001102,53.2154,326.9985,80.1087,280.003,0.00014847,2.076e-05,0.0,0 STARLINK-5187,1 54065U 22136Q   23125.96316608  .00002076  00000-0  14847-3 0  9998,2 54065  53.2154 326.9985 0001102  80.1087 280.0030 15.08841778 30030,6917.875,95.437,540.502,538.978,0.0
54065.0,STARLINK-5187,PAYLOAD,2023-05-06 19:46:57,15.08850325,0.0001238,53.2152,323.1316,90.1047,270.0087,0.00019551,2.826e-05,0.0,0 STARLINK-5187,1 54065U 22136Q   23126.82428138  .00002826  00000-0  19551-3 0  9996,2 54065  53.2152 323.1316 0001238  90.1047 270.0087 15.08850325 30648,6917.849,95.437,540.57,538.857,0.0
54065.0,STARLINK-5187,PAYLOAD,2023-05-07 19:37:45,15.08840736,0.0001187,53.2168,318.6688,91.453,268.6598,5.7564e-05,6.28e-06,0.0,0 STARLINK-5187,1 54065U 22136Q   23127.81788704  .00000628  00000-0  57564-4 0  9999,2 54065  53.2168 318.6688 0001187  91.4530 268.6598 15.08840736 30791,6917.878,95.438,540.564,538.922,0.0
54065.0,STARLINK-5187,PAYLOAD,2023-05-08 19:28:32,15.08845709,0.0001067,53.215,314.2126,100.7006,259.4106,4.4927e-05,4.27e-06,0.0,0 STARLINK-5187,1 54065U 22136Q   23128.81148522  .00000427  00000-0  44927-4 0  9994,2 54065  53.2150 314.2126 0001067 100.7006 259.4106 15.08845709 30462,6917.863,95.437,540.466,538.99,0.0
54065.0,STARLINK-5187,PAYLOAD,2023-05-09 05:00:51,15.08844015,0.000103,53.2151,312.4284,100.1118,259.9991,6.4612e-05,7.41e-06,0.0,0 STARLINK-5187,1 54065U 22136Q   23129.20892550  .00000741  00000-0  64612-4 0  9997,2 54065  53.2151 312.4284 0001030 100.1118 259.9991 15.08844015 31003,6917.868,95.437,540.446,539.021,0.0
54065.0,STARLINK-5187,PAYLOAD,2023-05-10 04:51:38,15.08838317,9.97e-05,53.216,307.9683,99.5263,260.5841,0.0001133,1.516e-05,0.0,0 STARLINK-5187,1 54065U 22136Q   23130.20253284  .00001516  00000-0  11330-3 0  9993,2 54065  53.2160 307.9683 0000997  99.5263 260.5841 15.08838317 30670,6917.886,95.438,540.44,539.061,0.0
54065.0,STARLINK-5187,PAYLOAD,2023-05-10 19:10:06,15.0884809,9.91e-05,53.2158,305.2917,94.9546,265.1559,0.00011626,1.563e-05,0.0,0 STARLINK-5187,1 54065U 22136Q   23130.79868778  .00001563  00000-0  11626-3 0  9997,2 54065  53.2158 305.2917 0000991  94.9546 265.1559 15.08848090 30761,6917.856,95.437,540.406,539.035,0.0
54065.0,STARLINK-5187,PAYLOAD,2023-05-11 04:42:25,15.08843597,9.92e-05,53.2154,303.507,85.2286,274.882,0.00010392,1.367e-05,0.0,0 STARLINK-5187,1 54065U 22136Q   23131.19612941  .00001367  00000-0  10392-3 0  9992,2 54065  53.2154 303.5070 0000992  85.2286 274.8820 15.08843597 30825,6917.869,95.437,540.421,539.048,0.0
54065.0,STARLINK-5187,PAYLOAD,2023-05-11 17:25:31,15.08831719,0.0001048,53.2153,301.128,83.2732,276.838,0.00016596,2.354e-05,0.0,0 STARLINK-5187,1 54065U 22136Q   23131.72605758  .00002354  00000-0  16596-3 0  9998,2 54065  53.2153 301.1280 0001048  83.2732 276.8380 15.08831719 31386,6917.906,95.438,540.496,539.046,0.0
54065.0,STARLINK-5187,PAYLOAD,2023-05-12 04:33:12,15.08841787,0.0001088,53.2164,299.0463,82.6619,277.4497,8.1377e-05,1.008e-05,0.0,0 STARLINK-5187,1 54065U 22136Q   23132.18973276  .00001008  00000-0  81377-4 0  9997,2 54065  53.2164 299.0463 0001088  82.6619 277.4497 15.08841787 31457,6917.875,95.437,540.493,538.987,0.0
54065.0,STARLINK-5187,PAYLOAD,2023-05-12 17:16:18,15.08842975,0.0001082,53.2161,296.6663,90.1601,269.9515,2.138e-05,5.3e-07,0.0,0 STARLINK-5187,1 54065U 22136Q   23132.71965365  .00000053  00000-0  21380-4 0  9993,2 54065  53.2161 296.6663 0001082  90.1601 269.9515 15.08842975 31051,6917.871,95.437,540.485,538.988,0.0
54065.0,STARLINK-5187,PAYLOAD,2023-05-13 04:23:59,15.08841855,0.0001056,53.2164,294.5844,91.4519,268.6595,4.1772e-05,3.77e-06,0.0,0 STARLINK-5187,1 54065U 22136Q   23133.18333305  .00000377  00000-0  41772-4 0  9994,2 54065  53.2164 294.5844 0001056  91.4519 268.6595 15.08841855 31123,6917.875,95.437,540.47,539.009,0.0
54065.0,STARLINK-5187,PAYLOAD,2023-05-13 13:56:18,15.08839199,0.0001056,53.2168,292.8001,91.2598,268.8515,9.3793e-05,1.205e-05,0.0,0 STARLINK-5187,1 54065U 22136Q   23133.58077312  .00001205  00000-0  93793-4 0  9992,2 54065  53.2168 292.8001 0001056  91.2598 268.8515 15.08839199 31669,6917.883,95.438,540.478,539.017,0.0
54065.0,STARLINK-5187,PAYLOAD,2023-05-13 17:07:04,15.0884375,0.0001218,53.2174,292.2066,85.1225,274.9906,7.1455e-05,8.5e-06,0.0,0 STARLINK-5187,1 54065U 22136Q   23133.71325154  .00000850  00000-0  71455-4 0  9993,2 54065  53.2174 292.2066 0001218  85.1225 274.9906 15.08843750 31200,6917.869,95.437,540.577,538.891,0.0
54065.0,STARLINK-5187,PAYLOAD,2023-05-14 13:47:06,15.08834582,0.0001185,53.2173,288.3399,87.3328,272.78,4.3879e-05,4.1e-06,0.0,0 STARLINK-5187,1 54065U 22136Q   23134.57437840  .00000410  00000-0  43879-4 0  9995,2 54065  53.2173 288.3399 0001185  87.3328 272.7800 15.08834582 31814,6917.897,95.438,540.582,538.942,0.0
54065.0,STARLINK-5187,PAYLOAD,2023-05-14 20:08:38,15.08846487,0.0001192,53.217,287.1502,86.4458,273.667,-3.6506e-05,-8.69e-06,0.0,0 STARLINK-5187,1 54065U 22136Q   23134.83933343 -.00000869  00000-0 -36506-4 0  9992,2 54065  53.2170 287.1502 0001192  86.4458 273.6670 15.08846487 31379,6917.861,95.437,540.55,538.901,0.0
54065.0,STARLINK-5187,PAYLOAD,2023-05-15 10:27:07,15.08835805,0.0001141,53.2165,284.4738,86.1763,273.936,1.8572e-05,8e-08,0.0,0 STARLINK-5187,1 54065U 22136Q   23135.43549937  .00000008  00000-0  18572-4 0  9997,2 54065  53.2165 284.4738 0001141  86.1763 273.9360 15.08835805 31465,6917.893,95.438,540.548,538.969,0.0
54065.0,STARLINK-5187,PAYLOAD,2023-05-15 13:37:53,15.08833873,0.0001087,53.216,283.8792,87.2127,272.899,-1.8115e-06,-3.17e-06,0.0,0 STARLINK-5187,1 54065U 22136Q   23135.56798155 -.00000317  00000-0 -18115-5 0  9998,2 54065  53.2160 283.8792 0001087  87.2127 272.8990 15.08833873 31963,6917.899,95.438,540.516,539.012,0.0
54065.0,STARLINK-5187,PAYLOAD,2023-05-15 16:48:39,15.08840272,0.0001191,53.2171,283.2843,95.2828,264.83,2.762e-05,1.52e-06,0.0,0 STARLINK-5187,1 54065U 22136Q   23135.70045639  .00000152  00000-0  27620-4 0  9991,2 54065  53.2171 283.2843 0001191  95.2828 264.8300 15.08840272 31988,6917.88,95.438,540.568,538.921,0.0
54065.0,STARLINK-5187,PAYLOAD,2023-05-16 13:28:40,15.08835973,0.0001135,53.2173,279.4207,94.8896,265.2226,6.5978e-06,-1.83e-06,0.0,0 STARLINK-5187,1 54065U 22136Q   23136.56158216 -.00000183  00000-0  65978-5 0  9996,2 54065  53.2173 279.4207 0001135  94.8896 265.2226 15.08835973 32119,6917.893,95.438,540.543,538.973,0.0
54065.0,STARLINK-5187,PAYLOAD,2023-05-17 02:11:45,15.08842377,0.0001092,53.2172,277.0418,88.0363,272.0754,2.8599e-05,1.67e-06,0.0,0 STARLINK-5187,1 54065U 22136Q   23137.09149718  .00000167  00000-0  28599-4 0  9990,2 54065  53.2172 277.0418 0001092  88.0363 272.0754 15.08842377 32198,6917.873,95.437,540.494,538.983,0.0
54065.0,STARLINK-5187,PAYLOAD,2023-05-17 16:30:14,15.08837269,0.0001256,53.218,274.3714,103.0252,257.088,1.7145e-05,-1.5e-07,0.0,0 STARLINK-5187,1 54065U 22136Q   23137.68766357 -.00000015  00000-0  17145-4 0  9997,2 54065  53.2180 274.3714 0001256 103.0252 257.0880 15.08837269 32280,6917.889,95.438,540.623,538.885,0.0
